[Satellite]
VERSION=1.1
NAME=S-Net J
NICKNAME=S-Net J
TLE1=1 43188U 18014J   20156.67969082  .00000308  00000-0  31987-4 0  9992
TLE2=2 43188  97.6950  64.7336 0009559 266.8420  93.1708 14.96802672127785
STATUS=0
